{"type": "FeatureCollection", "features": [ {"type": "Feature", "properties": {"norad_id": 66817, "name": "STARLINK-35995", "group": "last-30-days", "lat": -36.05721702428055, "lon": 158.75115304087328, "alt_km": 371.40452404206553, "timestamp": "2025-12-19T14:48:34.965009+00:00", "meta": {"OBJECT_NAME": "STARLINK-35995", "OBJECT_ID": "2025-278AC", "EPOCH": "2025-12-19T06:00:02.000160", "MEAN_MOTION": 15.67850579, "ECCENTRICITY": 0.00018741, "INCLINATION": 42.9989, "RA_OF_ASC_NODE": 212.3371, "ARG_OF_PERICENTER": 269.9746, "MEAN_ANOMALY": 117.1664, "EPHEMERIS_TYPE": 0, "CLASSIFICATION_TYPE": "U", "NORAD_CAT_ID": 66817, "ELEMENT_SET_NO": 999, "REV_AT_EPOCH": 400, "BSTAR": -0.019365455, "MEAN_MOTION_DOT": -0.01941524, "MEAN_MOTION_DDOT": 0}, "tle": {"line1": "1 66817U 25278AC  25353.25002315 -.01941524  00000+0 -19365-1 0  9990", "line2": "2 66817  42.9989 212.3371 0001874 269.9746 117.1664 15.67850579  4006"}}, "geometry": {"type": "Point", "coordinates": [158.75115304087328, -36.05721702428055]}}, {"type": "Feature", "properties": {"norad_id": 66818, "name": "STARLINK-35994", "group": "last-30-days", "lat": -36.852984450776425, "lon": 156.58989026456595, "alt_km": 371.45970793487595, "timestamp": "2025-12-19T14:48:34.965021+00:00", "meta": {"OBJECT_NAME": "STARLINK-35994", "OBJECT_ID": "2025-278AD", "EPOCH": "2025-12-19T06:00:02.000160", "MEAN_MOTION": 15.67848955, "ECCENTRICITY": 0.00017698, "INCLINATION": 42.999, "RA_OF_ASC_NODE": 212.3427, "ARG_OF_PERICENTER": 271.7319, "MEAN_ANOMALY": 113.4923, "EPHEMERIS_TYPE": 0, "CLASSIFICATION_TYPE": "U", "NORAD_CAT_ID": 66818, "ELEMENT_SET_NO": 999, "REV_AT_EPOCH": 400, "BSTAR": -0.019319255, "MEAN_MOTION_DOT": -0.01937233, "MEAN_MOTION_DDOT": 0}, "tle": {"line1": "1 66818U 25278AD  25353.25002315 -.01937233  00000+0 -19319-1 0  9992", "line2": "2 66818  42.9990 212.3427 0001769 271.7319 113.4923 15.67848955  4003"}}, "geometry": {"type": "Point", "coordinates": [156.58989026456595, -36.852984450776425]}}, {"type": "Feature", "properties": {"norad_id": 66819, "name": "STARLINK-35989", "group": "last-30-days", "lat": -35.22359172845899, "lon": 160.86737493498595, "alt_km": 371.386179771097, "timestamp": "2025-12-19T14:48:34.965031+00:00", "meta": {"OBJECT_NAME": "STARLINK-35989", "OBJECT_ID": "2025-278AE", "EPOCH": "2025-12-19T06:00:02.000160", "MEAN_MOTION": 15.67850895, "ECCENTRICITY": 0.0001859, "INCLINATION": 42.9988, "RA_OF_ASC_NODE": 212.3317, "ARG_OF_PERICENTER": 270.7199, "MEAN_ANOMALY": 118.3387, "EPHEMERIS_TYPE": 0, "CLASSIFICATION_TYPE": "U", "NORAD_CAT_ID": 66819, "ELEMENT_SET_NO": 999, "REV_AT_EPOCH": 400, "BSTAR": -0.01937764, "MEAN_MOTION_DOT": -0.01942614, "MEAN_MOTION_DDOT": 0}, "tle": {"line1": "1 66819U 25278AE  25353.25002315 -.01942614  00000+0 -19378-1 0  9997", "line2": "2 66819  42.9988 212.3317 0001859 270.7199 118.3387 15.67850895  4008"}}, "geometry": {"type": "Point", "coordinates": [160.86737493498595, -35.22359172845899]}}, {"type": "Feature", "properties": {"norad_id": 66820, "name": "KOMPSAT-7", "group": "last-30-days", "lat": 14.385170603277135, "lon": -62.61689430386493, "alt_km": 572.1814824498233, "timestamp": "2025-12-19T14:48:34.965041+00:00", "meta": {"OBJECT_NAME": "KOMPSAT-7", "OBJECT_ID": "2025-279A", "EPOCH": "2025-12-15T00:17:19.244256", "MEAN_MOTION": 15.0015594, "ECCENTRICITY": 0.00093948, "INCLINATION": 97.641, "RA_OF_ASC_NODE": 294.8339, "ARG_OF_PERICENTER": 252.0315, "MEAN_ANOMALY": 107.9885, "EPHEMERIS_TYPE": 0, "CLASSIFICATION_TYPE": "U", "NORAD_CAT_ID": 66820, "ELEMENT_SET_NO": 999, "REV_AT_EPOCH": 199, "BSTAR": 0.00025788518, "MEAN_MOTION_DOT": 3.163e-05, "MEAN_MOTION_DDOT": 0}, "tle": {"line1": "1 66820U 25279A   25349.01202829  .00003163  00000+0  25789-3 0  9990", "line2": "2 66820  97.6410 294.8339 0009394 252.0315 107.9885 15.00155940  1999"}}, "geometry": {"type": "Point", "coordinates": [-62.61689430386493, 14.385170603277135]}}, {"type": "Feature", "properties": {"norad_id": 66821, "name": "STARLINK-35966", "group": "last-30-days", "lat": -69.61695675661859, "lon": 100.96448294912058, "alt_km": 413.4266923330515, "timestamp": "2025-12-19T14:48:34.965054+00:00", "meta": {"OBJECT_NAME": "STARLINK-35966", "OBJECT_ID": "2025-280A", "EPOCH": "2025-12-19T06:00:02.000160", "MEAN_MOTION": 15.54534121, "ECCENTRICITY": 0.00040738, "INCLINATION": 69.9991, "RA_OF_ASC_NODE": 180.5864, "ARG_OF_PERICENTER": 272.5586, "MEAN_ANOMALY": 109.2022, "EPHEMERIS_TYPE": 0, "CLASSIFICATION_TYPE": "U", "NORAD_CAT_ID": 66821, "ELEMENT_SET_NO": 999, "REV_AT_EPOCH": 394, "BSTAR": -0.042099565, "MEAN_MOTION_DOT": -0.02432413, "MEAN_MOTION_DDOT": 0}, "tle": {"line1": "1 66821U 25280A   25353.25002315 -.02432413  00000+0 -42100-1 0  9994", "line2": "2 66821  69.9991 180.5864 0004073 272.5586 109.2022 15.54534121  3942"}}, "geometry": {"type": "Point", "coordinates": [100.96448294912058, -69.61695675661859]}}, {"type": "Feature", "properties": {"norad_id": 66822, "name": "STARLINK-35958", "group": "last-30-days", "lat": -69.18081587712703, "lon": 106.26084286862071, "alt_km": 413.5471545332157, "timestamp": "2025-12-19T14:48:34.965063+00:00", "meta": {"OBJECT_NAME": "STARLINK-35958", "OBJECT_ID": "2025-280B", "EPOCH": "2025-12-19T06:00:02.000160", "MEAN_MOTION": 15.54523563, "ECCENTRICITY": 0.00039218, "INCLINATION": 69.9994, "RA_OF_ASC_NODE": 180.5849, "ARG_OF_PERICENTER": 268.4664, "MEAN_ANOMALY": 115.2142, "EPHEMERIS_TYPE": 0, "CLASSIFICATION_TYPE": "U", "NORAD_CAT_ID": 66822, "ELEMENT_SET_NO": 999, "REV_AT_EPOCH": 394, "BSTAR": -0.041866822, "MEAN_MOTION_DOT": -0.02419712, "MEAN_MOTION_DDOT": 0}, "tle": {"line1": "1 66822U 25280B   25353.25002315 -.02419712  00000+0 -41867-1 0  9991", "line2": "2 66822  69.9994 180.5849 0003921 268.4664 115.2142 15.54523563  3949"}}, "geometry": {"type": "Point", "coordinates": [106.26084286862071, -69.18081587712703]}}, {"type": "Feature", "properties": {"norad_id": 66823, "name": "STARLINK-35957", "group": "last-30-days", "lat": -68.58668454697553, "lon": 111.32841984638071, "alt_km": 413.6780196422069, "timestamp": "2025-12-19T14:48:34.965073+00:00", "meta": {"OBJECT_NAME": "STARLINK-35957", "OBJECT_ID": "2025-280C", "EPOCH": "2025-12-19T06:00:02.000160", "MEAN_MOTION": 15.54548215, "ECCENTRICITY": 0.00038074, "INCLINATION": 69.9996, "RA_OF_ASC_NODE": 180.5824, "ARG_OF_PERICENTER": 268.0609, "MEAN_ANOMALY": 117.5352, "EPHEMERIS_TYPE": 0, "CLASSIFICATION_TYPE": "U", "NORAD_CAT_ID": 66823, "ELEMENT_SET_NO": 999, "REV_AT_EPOCH": 394, "BSTAR": -0.042651405, "MEAN_MOTION_DOT": -0.02460903, "MEAN_MOTION_DDOT": 0}, "tle": {"line1": "1 66823U 25280C   25353.25002315 -.02460903  00000+0 -42651-1 0  9992", "line2": "2 66823  69.9996 180.5824 0003807 268.0609 117.5352 15.54548215  3942"}}, "geometry": {"type": "Point", "coordinates": [111.32841984638071, -68.58668454697553]}}, {"type": "Feature", "properties": {"norad_id": 66824, "name": "STARLINK-35896", "group": "last-30-days", "lat": -67.85289873093757, "lon": 116.07583770666183, "alt_km": 413.67298130014296, "timestamp": "2025-12-19T14:48:34.965084+00:00", "meta": {"OBJECT_NAME": "STARLINK-35896", "OBJECT_ID": "2025-280D", "EPOCH": "2025-12-19T06:00:02.000160", "MEAN_MOTION": 15.54529401, "ECCENTRICITY": 0.00037845, "INCLINATION": 69.9993, "RA_OF_ASC_NODE": 180.58, "ARG_OF_PERICENTER": 267.6829, "MEAN_ANOMALY": 119.8298, "EPHEMERIS_TYPE": 0, "CLASSIFICATION_TYPE": "U", "NORAD_CAT_ID": 66824, "ELEMENT_SET_NO": 999, "REV_AT_EPOCH": 394, "BSTAR": -0.042046019, "MEAN_MOTION_DOT": -0.02429027, "MEAN_MOTION_DDOT": 0}, "tle": {"line1": "1 66824U 25280D   25353.25002315 -.02429027  00000+0 -42046-1 0  9993", "line2": "2 66824  69.9993 180.5800 0003784 267.6829 119.8298 15.54529401  3947"}}, "geometry": {"type": "Point", "coordinates": [116.07583770666183, -67.85289873093757]}}, {"type": "Feature", "properties": {"norad_id": 66825, "name": "STARLINK-35476", "group": "last-30-days", "lat": -66.98871956309708, "lon": 120.51683129331553, "alt_km": 413.58897215392244, "timestamp": "2025-12-19T14:48:34.965093+00:00", "meta": {"OBJECT_NAME": "STARLINK-35476", "OBJECT_ID": "2025-280E", "EPOCH": "2025-12-19T06:00:02.000160", "MEAN_MOTION": 15.54529887, "ECCENTRICITY": 0.00038823, "INCLINATION": 69.999, "RA_OF_ASC_NODE": 180.5773, "ARG_OF_PERICENTER": 270.3914, "MEAN_ANOMALY": 119.038, "EPHEMERIS_TYPE": 0, "CLASSIFICATION_TYPE": "U", "NORAD_CAT_ID": 66825, "ELEMENT_SET_NO": 999, "REV_AT_EPOCH": 379, "BSTAR": -0.042065343, "MEAN_MOTION_DOT": -0.02430146, "MEAN_MOTION_DDOT": 0}, "tle": {"line1": "1 66825U 25280E   25353.25002315 -.02430146  00000+0 -42065-1 0  9999", "line2": "2 66825  69.9990 180.5773 0003882 270.3914 119.0380 15.54529887  3794"}}, "geometry": {"type": "Point", "coordinates": [120.51683129331553, -66.98871956309708]}}, {"type": "Feature", "properties": {"norad_id": 66826, "name": "STARLINK-35898", "group": "last-30-days", "lat": -66.00995055604567, "lon": 124.63367530195686, "alt_km": 413.6241609488443, "timestamp": "2025-12-19T14:48:34.965105+00:00", "meta": {"OBJECT_NAME": "STARLINK-35898", "OBJECT_ID": "2025-280F", "EPOCH": "2025-12-19T06:00:02.000160", "MEAN_MOTION": 15.54522075, "ECCENTRICITY": 0.00038325, "INCLINATION": 69.9991, "RA_OF_ASC_NODE": 180.575, "ARG_OF_PERICENTER": 270.3347, "MEAN_ANOMALY": 121.013, "EPHEMERIS_TYPE": 0, "CLASSIFICATION_TYPE": "U", "NORAD_CAT_ID": 66826, "ELEMENT_SET_NO": 999, "REV_AT_EPOCH": 394, "BSTAR": -0.041864695, "MEAN_MOTION_DOT": -0.0241939, "MEAN_MOTION_DDOT": 0}, "tle": {"line1": "1 66826U 25280F   25353.25002315 -.02419390  00000+0 -41865-1 0  9995", "line2": "2 66826  69.9991 180.5750 0003832 270.3347 121.0130 15.54522075  3941"}}, "geometry": {"type": "Point", "coordinates": [124.63367530195686, -66.00995055604567]}}]}